{
  "name": "SATGUS",
  "line1": "1 62713U 25009DJ  26089.18578101  .00011210  00000+0  90009-3 0  9996",
  "line2": "2 62713  97.7131 171.2655 0004756  33.3211 326.8311 15.00212314 65713",
  "fetched_at": "2026-03-31T00:28:20.051274+00:00"
}